IRIDIUM 155             
1 43573U 18061E   23333.39902343  .00000686  00000+0  23798-3 0  9996
2 43573  86.3961  85.6972 0002028 101.5014 258.6409 14.34230432279949
IRIDIUM 154             
1 43574U 18061F   23333.38002223  .00000927  00000+0  32380-3 0  9999
2 43574  86.3965  85.7933 0001690  91.6038 268.5351 14.34214584279992
IRIDIUM 163             
1 43575U 18061G   23332.73305884  .00000647  00000+0  22400-3 0  9998
2 43575  86.3962  86.0079 0001958  90.7129 269.4291 14.34226959279872
IRIDIUM 156             
1 43576U 18061H   23332.70770242  .00000645  00000+0  22319-3 0  9997
2 43576  86.3960  86.0246 0002321  95.5470 264.5990 14.34227695279863
IRIDIUM 164             
1 43577U 18061J   23333.38635129  .00000710  00000+0  24635-3 0  9993
2 43577  86.3964  85.7670 0002167  90.5550 269.5895 14.34226363280005
IRIDIUM 159             
1 43578U 18061K   23332.72672763  .00000631  00000+0  21835-3 0  9997
2 43578  86.3960  85.9989 0002001  95.6309 264.5115 14.34224260279879
IRIDIUM 180             
1 43922U 19002A   23332.23784571  .00000542  00000+0  18651-3 0  9996
2 43922  86.3993  23.0765 0002121  89.5716 270.5723 14.34223888255411
IRIDIUM 176             
1 43923U 19002B   23333.61322094  .00002121  00000+0  33227-3 0  9999
2 43923  86.6119  22.5344 0002339  93.0156 267.1329 14.72275317262330
IRIDIUM 168             
1 43924U 19002C   23333.55710530  .00000590  00000+0  20351-3 0  9991
2 43924  86.3993  22.5763 0001981  91.2711 268.8712 14.34223717255580
IRIDIUM 173             
1 43925U 19002D   23333.61420217  .00000590  00000+0  20350-3 0  9998
2 43925  86.4003  22.4808 0002466 102.1069 258.0404 14.34212480255573
IRIDIUM 169             
1 43926U 19002E   23333.59601017  .00000912  00000+0  29172-3 0  9994
2 43926  86.4244  54.0925 0004020 139.9686 220.1809 14.38612314256432
IRIDIUM 172             
1 43927U 19002F   23333.60785894  .00001931  00000+0  68224-3 0  9996
2 43927  86.3989  22.4870 0001979  90.0484 270.0939 14.34217838255580
IRIDIUM 175             
1 43928U 19002G   23333.60700125  .00002146  00000+0  33621-3 0  9993
2 43928  86.1521   7.0254 0002377  93.1453 267.0035 14.72263871262322
IRIDIUM 171             
1 43929U 19002H   23333.51906659  .00000572  00000+0  19715-3 0  9993
2 43929  86.4000  22.7273 0002214  90.2576 269.8874 14.34225733255569
IRIDIUM 170             
1 43930U 19002J   23333.61922614  .00002122  00000+0  33245-3 0  9992
2 43930  86.6119  22.5367 0002482  94.8838 265.2662 14.72272110262346
IRIDIUM 167             
1 43931U 19002K   23333.51270082  .00000570  00000+0  19638-3 0  9992
2 43931  86.3991  22.5413 0002284  92.0631 268.0826 14.34225427255561
IRIDIUM 181             
1 56726U 23068S   23333.29700834  .00000967  00000+0  27969-3 0  9999
2 56726  86.8641  66.6113 0003122  85.1056 275.0502 14.43587631 28156
IRIDIUM 177             
1 56727U 23068T   23333.31307670  .00003133  00000+0  40837-3 0  9991
2 56727  86.1999  50.7180 0002145  92.0290 268.1177 14.80271532 28663
IRIDIUM 174             
1 56728U 23068U   23333.30762243  .00003151  00000+0  41071-3 0  9993
2 56728  86.2003  50.8079 0002148  99.7715 260.3749 14.80272540 28667
IRIDIUM 178             
1 56729U 23068V   23333.43748146  .00003219  00000+0  41970-3 0  9997
2 56729  86.5804  58.6949 0002112  93.8586 266.2877 14.80278308 28681
IRIDIUM 179             
1 56730U 23068W   23333.29683344  .00003140  00000+0  40931-3 0  9990
2 56730  86.6814  60.3591 0002157 103.0984 257.0478 14.80279924 28661
